STARLINK-30714          
1 57939U 23148E   26068.26817326 -.00000932  00000+0 -19342-4 0  9996
2 57939  53.1611  26.4425 0001068  87.7795 272.3328 15.30192407138352
STARLINK-30494          
1 57970U 23151G   26068.36049035 -.00001272  00000+0 -35691-4 0  9993
2 57970  43.0027 192.4566 0001155 241.5536 118.5200 15.28417441137406
